CSS (TIANHE)            
1 48274U 21035A   23361.11759998  .00042395  00000+0  43357-3 0  9997
2 48274  41.4715  60.4928 0006083  69.1835 290.9656 15.64210106152008
